{
  "norad_id": 60212,
  "name": "TIANHUI 5D",
  "history": [
    {
      "epoch": "2026-04-23T13:08:58.072704Z",
      "apogee_km": 606.9852965468635,
      "perigee_km": 604.0027274142667,
      "latitude_deg": -2.5284856702010683e-05,
      "longitude_deg": 73.04858314227243,
      "height_km": 608.6382778815016,
      "semi_major_axis_km": 6983.631011980565,
      "eccentricity": 0.00021354,
      "inclination_deg": 97.8209,
      "raan_deg": 121.8841,
      "arg_perigee_deg": 94.3666,
      "mean_anomaly_deg": 265.7794,
      "mean_motion_rev_day": 14.87581726
    },
    {
      "epoch": "2026-04-24T11:45:01.546272Z",
      "apogee_km": 606.9791779853203,
      "perigee_km": 604.0488380223624,
      "latitude_deg": 1.874976629132219e-05,
      "longitude_deg": 94.03421403618991,
      "height_km": 608.6690325540496,
      "semi_major_axis_km": 6983.6510080038415,
      "eccentricity": 0.0002098,
      "inclination_deg": 97.8208,
      "raan_deg": 122.8124,
      "arg_perigee_deg": 94.8644,
      "mean_anomaly_deg": 265.2812,
      "mean_motion_rev_day": 14.87575337
    },
    {
      "epoch": "2026-04-25T13:34:48.349632Z",
      "apogee_km": 606.9809144820465,
      "perigee_km": 604.039402298933,
      "latitude_deg": 1.414462759122362e-05,
      "longitude_deg": 66.58931341741344,
      "height_km": 608.6555967687726,
      "semi_major_axis_km": 6983.6471583904895,
      "eccentricity": 0.0002106,
      "inclination_deg": 97.8207,
      "raan_deg": 123.8733,
      "arg_perigee_deg": 94.4717,
      "mean_anomaly_deg": 265.674,
      "mean_motion_rev_day": 14.87576567
    },
    {
      "epoch": "2026-04-26T13:47:43.425024Z",
      "apogee_km": 606.9731621568835,
      "perigee_km": 604.0386354108141,
      "latitude_deg": -2.5865806034206418e-05,
      "longitude_deg": 63.35995139631142,
      "height_km": 608.6533164195258,
      "semi_major_axis_km": 6983.642898783848,
      "eccentricity": 0.0002101,
      "inclination_deg": 97.8207,
      "raan_deg": 124.8679,
      "arg_perigee_deg": 94.5592,
      "mean_anomaly_deg": 265.5864,
      "mean_motion_rev_day": 14.87577928
    },
    {
      "epoch": "2026-04-27T14:00:38.446848Z",
      "apogee_km": 606.9691953571592,
      "perigee_km": 604.0374631469394,
      "latitude_deg": 3.439399255803778e-06,
      "longitude_deg": 60.13070413923772,
      "height_km": 608.6556950211769,
      "semi_major_axis_km": 6983.640329252049,
      "eccentricity": 0.0002099,
      "inclination_deg": 97.8206,
      "raan_deg": 125.8624,
      "arg_perigee_deg": 94.7574,
      "mean_anomaly_deg": 265.3882,
      "mean_motion_rev_day": 14.87578749
    },
    {
      "epoch": "2026-04-28T07:46:06.764160Z",
      "apogee_km": 606.9731280382512,
      "perigee_km": 604.0277091205899,
      "latitude_deg": -1.5474668389888776e-05,
      "longitude_deg": 153.7628288552474,
      "height_km": 608.6479925768481,
      "semi_major_axis_km": 6983.63741857942,
      "eccentricity": 0.00021088,
      "inclination_deg": 97.8206,
      "raan_deg": 126.5918,
      "arg_perigee_deg": 94.5488,
      "mean_anomaly_deg": 265.5969,
      "mean_motion_rev_day": 14.87579679
    },
    {
      "epoch": "2026-04-30T11:25:39.841248Z",
      "apogee_km": 606.9786573137244,
      "perigee_km": 604.0082399387047,
      "latitude_deg": -4.789420266876046e-05,
      "longitude_deg": 98.87534512709547,
      "height_km": 608.6175888584235,
      "semi_major_axis_km": 6983.630448626214,
      "eccentricity": 0.00021267,
      "inclination_deg": 97.8205,
      "raan_deg": 128.7137,
      "arg_perigee_deg": 93.6053,
      "mean_anomaly_deg": 266.5406,
      "mean_motion_rev_day": 14.87581906
    },
    {
      "epoch": "2026-05-01T08:24:51.185952Z",
      "apogee_km": 606.7935267592984,
      "perigee_km": 604.2232659076317,
      "latitude_deg": 2.2731693481342307e-05,
      "longitude_deg": 144.07658086453492,
      "height_km": 608.4699251096406,
      "semi_major_axis_km": 6983.645396333464,
      "eccentricity": 0.00018402,
      "inclination_deg": 97.8217,
      "raan_deg": 129.5741,
      "arg_perigee_deg": 86.8941,
      "mean_anomaly_deg": 273.2486,
      "mean_motion_rev_day": 14.8757713
    },
    {
      "epoch": "2026-05-04T12:17:18.305952Z",
      "apogee_km": 606.9469362116934,
      "perigee_km": 604.0096276241193,
      "latitude_deg": 3.2953533318390696e-06,
      "longitude_deg": 85.9653329098646,
      "height_km": 608.5791117024667,
      "semi_major_axis_km": 6983.615281917906,
      "eccentricity": 0.0002103,
      "inclination_deg": 97.8211,
      "raan_deg": 132.6919,
      "arg_perigee_deg": 92.7346,
      "mean_anomaly_deg": 267.4111,
      "mean_motion_rev_day": 14.87586752
    },
    {
      "epoch": "2026-05-05T09:16:29.496000Z",
      "apogee_km": 606.9622546280352,
      "perigee_km": 603.9872360245263,
      "latitude_deg": 7.4431602093090435e-06,
      "longitude_deg": 131.1692213747137,
      "height_km": 608.5921566514472,
      "semi_major_axis_km": 6983.6117453262805,
      "eccentricity": 0.000213,
      "inclination_deg": 97.8212,
      "raan_deg": 133.5543,
      "arg_perigee_deg": 93.3412,
      "mean_anomaly_deg": 266.8048,
      "mean_motion_rev_day": 14.87587882
    },
    {
      "epoch": "2026-05-06T11:06:15.587424Z",
      "apogee_km": 606.9618526268223,
      "perigee_km": 603.9825052788974,
      "latitude_deg": -5.5862692169434014e-05,
      "longitude_deg": 103.72739965947721,
      "height_km": 608.550475053181,
      "semi_major_axis_km": 6983.60917895286,
      "eccentricity": 0.00021331,
      "inclination_deg": 97.8212,
      "raan_deg": 134.6153,
      "arg_perigee_deg": 91.8306,
      "mean_anomaly_deg": 268.3154,
      "mean_motion_rev_day": 14.87588702
    },
    {
      "epoch": "2026-05-07T11:19:10.994592Z",
      "apogee_km": 606.9901579410898,
      "perigee_km": 604.0835528824673,
      "latitude_deg": 8.193541665081999e-05,
      "longitude_deg": 100.49692318861395,
      "height_km": 608.6653198501552,
      "semi_major_axis_km": 6983.673855411778,
      "eccentricity": 0.0002081,
      "inclination_deg": 97.8212,
      "raan_deg": 135.6102,
      "arg_perigee_deg": 93.8545,
      "mean_anomaly_deg": 266.291,
      "mean_motion_rev_day": 14.87568037
    },
    {
      "epoch": "2026-05-08T09:55:14.869056Z",
      "apogee_km": 607.0188043510689,
      "perigee_km": 604.0507438470768,
      "latitude_deg": -4.629483788229507e-05,
      "longitude_deg": 121.48050089567984,
      "height_km": 608.719317290198,
      "semi_major_axis_km": 6983.6717740990725,
      "eccentricity": 0.0002125,
      "inclination_deg": 97.8211,
      "raan_deg": 136.5381,
      "arg_perigee_deg": 95.9488,
      "mean_anomaly_deg": 264.197,
      "mean_motion_rev_day": 14.87568702
    },
    {
      "epoch": "2026-05-09T10:08:10.405824Z",
      "apogee_km": 607.0043463567845,
      "perigee_km": 604.0600314267476,
      "latitude_deg": 9.391412962868135e-05,
      "longitude_deg": 118.24928381280772,
      "height_km": 608.6796239896347,
      "semi_major_axis_km": 6983.669188891766,
      "eccentricity": 0.0002108,
      "inclination_deg": 97.821,
      "raan_deg": 137.5328,
      "arg_perigee_deg": 94.5467,
      "mean_anomaly_deg": 265.5991,
      "mean_motion_rev_day": 14.87569528
    }
  ]
}